{
"type": "FeatureCollection",
"name": "liberty_hill_healthcare_facilities",
"crs": { "type": "name", "properties": { "name": "urn:ogc:def:crs:OGC:1.3:CRS84" } },
"features": [
{ "type": "Feature", "properties": { "facility_id": "carefirst-libertyhill-primary", "facility_name": "Care First Clinic", "facility_type": "primary_care", "facility_type_label": "Primary Care", "organization": "Care First Clinic", "address": "12635 West State Highway 29", "city": "Liberty Hill", "state": "TX", "zip_code": "78642", "phone": "512-548-5373", "latitude": "30.660911524964", "longitude": "-97.896227247826", "website": "https://www.carefirstclinic.com/", "source_url": "https://www.carefirstclinic.com/", "source_type": "official_provider", "current_status": "Verified Current", "verification_date": "2026-09-15", "verification_notes": "Official clinic website lists Liberty Hill address, phone, contact page, current hours, and primary care services. | Coordinates populated from U.S. Census geocoder using the listed official address.", "former_name": null, "services": "Primary care; family medicine; integrative health; in-house labs; Quest Diagnostics", "full_address": "12635 West State Highway 29, Liberty Hill, TX, 78642", "distance_from_proposed_site_miles": 0.81297557509966278, "drive_time_minutes": null, "drive_distance_miles": null }, "geometry": { "type": "Point", "coordinates": [ -97.896227247826005, 30.660911524964 ] } },
{ "type": "Feature", "properties": { "facility_id": "carefirst-libertyhill-urgent", "facility_name": "Care First Clinic", "facility_type": "urgent_care", "facility_type_label": "Urgent Care", "organization": "Care First Clinic", "address": "12635 West State Highway 29", "city": "Liberty Hill", "state": "TX", "zip_code": "78642", "phone": "512-548-5373", "latitude": "30.660911524964", "longitude": "-97.896227247826", "website": "https://www.carefirstclinic.com/", "source_url": "https://www.carefirstclinic.com/", "source_type": "official_provider", "current_status": "Verified Current", "verification_date": "2026-09-15", "verification_notes": "Official clinic website lists Liberty Hill address, phone, contact page, current hours, and urgent care or walk-in services. | Coordinates populated from U.S. Census geocoder using the listed official address.", "former_name": null, "services": "Urgent care; same-day sick visits; stitches; splints; illness and injury care", "full_address": "12635 West State Highway 29, Liberty Hill, TX, 78642", "distance_from_proposed_site_miles": 0.81297557509966278, "drive_time_minutes": null, "drive_distance_miles": null }, "geometry": { "type": "Point", "coordinates": [ -97.896227247826005, 30.660911524964 ] } },
{ "type": "Feature", "properties": { "facility_id": "arc-libertyhill-primary", "facility_name": "ARC Liberty Hill", "facility_type": "primary_care", "facility_type_label": "Primary Care", "organization": "Austin Regional Clinic", "address": "12779 West State Highway 29", "city": "Liberty Hill", "state": "TX", "zip_code": "78642", "phone": "512-778-7003", "latitude": "30.660959743194", "longitude": "-97.896347723945", "website": "https://www.austinregionalclinic.com/clinics/liberty-hill", "source_url": "https://www.austinregionalclinic.com/clinics/liberty-hill", "source_type": "official_provider", "current_status": "Verified Current", "verification_date": "2026-09-15", "verification_notes": "Official Austin Regional Clinic page lists address, phone, hours, specialties, and on-site services. | Coordinates populated from U.S. Census geocoder using the listed official address.", "former_name": null, "services": "Family medicine; pediatrics; lab services; X-rays; same-day care", "full_address": "12779 West State Highway 29, Liberty Hill, TX, 78642", "distance_from_proposed_site_miles": 0.82031501583535116, "drive_time_minutes": null, "drive_distance_miles": null }, "geometry": { "type": "Point", "coordinates": [ -97.896347723944999, 30.660959743193999 ] } },
{ "type": "Feature", "properties": { "facility_id": "careNow-libertyhill-urgent", "facility_name": "CareNow Urgent Care - Liberty Hill", "facility_type": "urgent_care", "facility_type_label": "Urgent Care", "organization": "CareNow", "address": "13140 W State Hwy 29", "city": "Liberty Hill", "state": "TX", "zip_code": "78642", "phone": "512-648-3802", "latitude": "30.663699213129", "longitude": "-97.902553065853", "website": "https://www.carenow.com/locations/austin/liberty-hill", "source_url": "https://www.carenow.com/locations/austin/liberty-hill", "source_type": "official_provider", "current_status": "Rebranded", "verification_date": "2026-09-15", "verification_notes": "Official CareNow location page lists the Liberty Hill address, phone, services, and notes that former Texas MedClinic clinics became CareNow as of August 1. | Coordinates populated from U.S. Census geocoder using the listed official address.", "former_name": "Texas MedClinic", "services": "Urgent care; X-rays; lab testing; immunizations; sports physicals; occupational medicine", "full_address": "13140 W State Hwy 29, Liberty Hill, TX, 78642", "distance_from_proposed_site_miles": 1.2111863995733916, "drive_time_minutes": null, "drive_distance_miles": null }, "geometry": { "type": "Point", "coordinates": [ -97.902553065852999, 30.663699213129 ] } },
{ "type": "Feature", "properties": { "facility_id": "arc-leander-primary", "facility_name": "ARC Leander", "facility_type": "primary_care", "facility_type_label": "Primary Care", "organization": "Austin Regional Clinic", "address": "901 Crystal Falls Parkway Suite 103", "city": "Leander", "state": "TX", "zip_code": "78641", "phone": "512-259-2198", "latitude": "30.55358413108", "longitude": "-97.8546384833", "website": "https://www.austinregionalclinic.com/clinics/leander", "source_url": "https://www.austinregionalclinic.com/clinics/leander", "source_type": "official_provider", "current_status": "Verified Current", "verification_date": "2026-09-15", "verification_notes": "Official Austin Regional Clinic page lists address, phone, hours, specialties, and on-site services. | Coordinates populated from U.S. Census geocoder using the listed official address.", "former_name": null, "services": "Family medicine; internal medicine; preventive care; lab services; same-day care", "full_address": "901 Crystal Falls Parkway Suite 103, Leander, TX, 78641", "distance_from_proposed_site_miles": 7.549259779559315, "drive_time_minutes": null, "drive_distance_miles": null }, "geometry": { "type": "Point", "coordinates": [ -97.854638483299993, 30.553584131080001 ] } },
{ "type": "Feature", "properties": { "facility_id": "bsw-leander-primary", "facility_name": "Baylor Scott & White Clinic - Leander", "facility_type": "primary_care", "facility_type_label": "Primary Care", "organization": "Baylor Scott & White Health", "address": "1007 US Hwy 183", "city": "Leander", "state": "TX", "zip_code": "78641", "phone": "512-260-4900", "latitude": "30.639887881851", "longitude": "-97.869258194673", "website": "https://www.bswhealth.com/locations/clinic/leander", "source_url": "https://www.bswhealth.com/locations/clinic/leander", "source_type": "official_provider", "current_status": "Verified Current", "verification_date": "2026-09-15", "verification_notes": "Official Baylor Scott & White clinic page lists address, phone, clinic hours, and primary care services. | Coordinates populated from U.S. Census geocoder using the listed official address.", "former_name": null, "services": "Primary care; family medicine; pediatric care; diagnostic testing and lab services; immunizations; women's health; rehabilitation and physical therapy", "full_address": "1007 US Hwy 183, Leander, TX, 78641", "distance_from_proposed_site_miles": 1.6127962407227974, "drive_time_minutes": null, "drive_distance_miles": null }, "geometry": { "type": "Point", "coordinates": [ -97.869258194672994, 30.639887881850999 ] } },
{ "type": "Feature", "properties": { "facility_id": "carenow-leander-urgent", "facility_name": "CareNow Urgent Care - Leander", "facility_type": "urgent_care", "facility_type_label": "Urgent Care", "organization": "CareNow", "address": "144 South Brook Drive Suite 180", "city": "Leander", "state": "TX", "zip_code": "78641", "phone": "737-757-3400", "latitude": "30.58976143", "longitude": "-97.85943116", "website": "https://www.carenow.com/locations/austin/leander", "source_url": "https://www.carenow.com/locations/austin/leander", "source_type": "official_provider", "current_status": "Verified Current", "verification_date": "2026-09-15", "verification_notes": "Official CareNow location page lists address, phone, hours, and services; directions link exposes coordinates.", "former_name": null, "services": "Urgent care; immunizations; physicals; X-rays; diagnostic testing; occupational medicine", "full_address": "144 South Brook Drive Suite 180, Leander, TX, 78641", "distance_from_proposed_site_miles": 5.057257158248559, "drive_time_minutes": null, "drive_distance_miles": null }, "geometry": { "type": "Point", "coordinates": [ -97.85943116, 30.58976143 ] } },
{ "type": "Feature", "properties": { "facility_id": "stdavids-leander-emergency", "facility_name": "St. David's Emergency Center - Leander", "facility_type": "emergency_department", "facility_type_label": "Emergency Department", "organization": "St. David's HealthCare", "address": "601 St Davids Loop", "city": "Leander", "state": "TX", "zip_code": "78641", "phone": "737-757-1700", "latitude": "30.59638021", "longitude": "-97.85638999", "website": "https://www.stdavids.com/locations/st-davids-emergency-center-leander", "source_url": "https://www.stdavids.com/locations/st-davids-emergency-center-leander", "source_type": "official_hospital", "current_status": "Verified Current", "verification_date": "2026-09-15", "verification_notes": "Official St. David's location page lists address, phone, open 24 hours status, and emergency services; directions link exposes coordinates.", "former_name": null, "services": "Emergency care; trauma care; diagnostic lab; imaging services; 24/7 emergency department", "full_address": "601 St Davids Loop, Leander, TX, 78641", "distance_from_proposed_site_miles": 4.6761280910677643, "drive_time_minutes": null, "drive_distance_miles": null }, "geometry": { "type": "Point", "coordinates": [ -97.85638999, 30.59638021 ] } },
{ "type": "Feature", "properties": { "facility_id": "bsw-georgetown-primary", "facility_name": "Baylor Scott & White Clinic - Georgetown", "facility_type": "primary_care", "facility_type_label": "Primary Care", "organization": "Baylor Scott & White Health", "address": "4945 Williams Dr", "city": "Georgetown", "state": "TX", "zip_code": "78633", "phone": "512-819-0500", "latitude": "30.6989563", "longitude": "-97.7364627", "website": "https://www.bswhealth.com/locations/clinic/georgetown", "source_url": "https://www.bswhealth.com/locations/clinic/georgetown", "source_type": "official_provider", "current_status": "Verified Current", "verification_date": "2026-09-15", "verification_notes": "Official Baylor Scott & White clinic page lists address, phone, clinic hours, and primary care services. | Coordinates populated from Nominatim after the Census geocoder returned no match.", "former_name": null, "services": "Primary care; orthopedics; eye care; endocrinology; cardiology; integrative medicine; chiropractic medicine; urgent care for ages 18+ during limited hours", "full_address": "4945 Williams Dr, Georgetown, TX, 78633", "distance_from_proposed_site_miles": 9.0803099663285671, "drive_time_minutes": null, "drive_distance_miles": null }, "geometry": { "type": "Point", "coordinates": [ -97.7364627, 30.6989563 ] } }
]
}
